IRIDIUM 69 [-]          
1 25319U 98026A   23338.53785362  .00000779  00000+0  24269-3 0  9991
2 25319  86.3972 331.9407 0004408  81.0562 279.1136 14.39696463342607
IRIDIUM 71 [-]          
1 25320U 98026B   23338.51215141  .00000775  00000+0  23989-3 0  9998
2 25320  86.3962 326.7650 0004008 112.3622 247.8002 14.40020325342874
IRIDIUM 73 [-]          
1 25344U 98032C   23338.36188248  .00001221  00000+0  30916-3 0  9996
2 25344  86.4403 284.5507 0003020  87.0171 273.1379 14.50173486349248
IRIDIUM 82 [-]          
1 25467U 98051A   23338.55013688  .00012344  00000+0  70467-3 0  9992
2 25467  86.3960  17.9213 0141803 215.0399 144.1447 15.04365814339026
IRIDIUM 2 [-]           
1 25527U 98066A   23338.27745817  .00039672  00000+0  77912-3 0  9995
2 25527  85.5175  67.5218 0003971  13.7652 346.3712 15.47136789377348
